[{"OBJECT_NAME":"STARLINK-4214","OBJECT_ID":"2022-062AZ","EPOCH":"2026-03-09T06:18:00.754272","MEAN_MOTION":15.0884913,"ECCENTRICITY":0.00011399,"INCLINATION":53.2188,"RA_OF_ASC_NODE":16.0502,"ARG_OF_PERICENTER":95.1716,"MEAN_ANOMALY":264.9407,"EPHEMERIS_TYPE":0,"CLASSIFICATION_TYPE":"U","NORAD_CAT_ID":52877,"ELEMENT_SET_NO":999,"REV_AT_EPOCH":20600,"BSTAR":-4.9116859e-5,"MEAN_MOTION_DOT":-1.07e-5,"MEAN_MOTION_DDOT":0},{"OBJECT_NAME":"LEMUR-2-MARHISYAM","OBJECT_ID":"2024-149BW","EPOCH":"2026-03-09T17:46:07.876416","MEAN_MOTION":15.0901552,"ECCENTRICITY":0.00035778,"INCLINATION":97.6912,"RA_OF_ASC_NODE":151.2662,"ARG_OF_PERICENTER":107.3271,"MEAN_ANOMALY":252.8349,"EPHEMERIS_TYPE":0,"CLASSIFICATION_TYPE":"U","NORAD_CAT_ID":60536,"ELEMENT_SET_NO":999,"REV_AT_EPOCH":8547,"BSTAR":0.00082973442,"MEAN_MOTION_DOT":0.00013075,"MEAN_MOTION_DDOT":0}]
